start=new Date('2021-09-24T00:00:00.000Z').valueOf();
sats=[{"FILE":"3125337","CLASSIFICATION_TYPE":"U","EPOCH":"2021-09-23T18:18:27.667872","PERIAPSIS":"546.064","LAUNCH_DATE":"2021-03-14","CENTER_NAME":"EARTH","MEAN_MOTION":"15.06415995","SEMIMAJOR_AXIS":"6925.300","TLE_LINE2":"2 47870  53.0578  34.6585 0001589  99.2380 260.8789 15.06415995 30515","ARG_OF_PERICENTER":"99.2380","OBJECT_NAME":"STARLINK-2326","SITE":"AFETR","ECCENTRICITY":"0.00015890","TLE_LINE1":"1 47870U 21021L   21266.76282023  .00003371  00000-0  24502-3 0  9999","TIME_SYSTEM":"UTC","MEAN_ELEMENT_THEORY":"SGP4","PERIOD":"95.591","REF_FRAME":"TEME","NORAD_CAT_ID":"47870","COUNTRY_CODE":"US","DECAY_DATE":null,"ELEMENT_SET_NO":"999","BSTAR":"0.00024502000000","EPHEMERIS_TYPE":"0","APOAPSIS":"548.265","RA_OF_ASC_NODE":"34.6585","MEAN_ANOMALY":"260.8789","INCLINATION":"53.0578","OBJECT_TYPE":"PAYLOAD","REV_AT_EPOCH":"3051","RCS_SIZE":"LARGE","MEAN_MOTION_DOT":"0.00003371","GP_ID":"185350830","OBJECT_ID":"2021-021L","MEAN_MOTION_DDOT":"0.0000000000000"},{"SITE":"AFETR","ECCENTRICITY":"0.00010400","TLE_LINE2":"2 47871  53.0579  10.0159 0001040 134.0010 226.1065 15.06404317 30958","ARG_OF_PERICENTER":"134.0010","OBJECT_NAME":"STARLINK-2327","TIME_SYSTEM":"UTC","MEAN_ELEMENT_THEORY":"SGP4","TLE_LINE1":"1 47871U 21021M   21266.68314530  .00000703  00000-0  66048-4 0  9998","FILE":"3125337","CLASSIFICATION_TYPE":"U","EPOCH":"2021-09-23T16:23:43.753920","MEAN_MOTION":"15.06404317","SEMIMAJOR_AXIS":"6925.335","PERIAPSIS":"546.480","LAUNCH_DATE":"2021-03-14","CENTER_NAME":"EARTH","REV_AT_EPOCH":"3095","INCLINATION":"53.0579","OBJECT_TYPE":"PAYLOAD","GP_ID":"185349083","MEAN_MOTION_DDOT":"0.0000000000000","OBJECT_ID":"2021-021M","RCS_SIZE":"LARGE","MEAN_MOTION_DOT":"0.00000703","REF_FRAME":"TEME","NORAD_CAT_ID":"47871","COUNTRY_CODE":"US","DECAY_DATE":null,"ELEMENT_SET_NO":"999","PERIOD":"95.592","RA_OF_ASC_NODE":"10.0159","MEAN_ANOMALY":"226.1065","BSTAR":"0.00006604800000","EPHEMERIS_TYPE":"0","APOAPSIS":"547.921"},{"EPOCH":"2021-09-23T16:36:40.951296","CLASSIFICATION_TYPE":"U","FILE":"3125337","SEMIMAJOR_AXIS":"6727.784","MEAN_MOTION":"15.73239001","CENTER_NAME":"EARTH","PERIAPSIS":"346.654","LAUNCH_DATE":"2021-03-14","ECCENTRICITY":"0.00044510","SITE":"AFETR","ARG_OF_PERICENTER":"355.7947","OBJECT_NAME":"STARLINK-2328","TLE_LINE2":"2 47872  53.0471 337.6686 0004451 355.7947   4.3033 15.73239001 31416","MEAN_ELEMENT_THEORY":"SGP4","TIME_SYSTEM":"UTC","TLE_LINE1":"1 47872U 21021N   21266.69214064 -.00004481  00000-0 -27412-4 0  9992","ELEMENT_SET_NO":"999","DECAY_DATE":null,"COUNTRY_CODE":"US","NORAD_CAT_ID":"47872","REF_FRAME":"TEME","PERIOD":"91.531","MEAN_ANOMALY":"4.3033","RA_OF_ASC_NODE":"337.6686","APOAPSIS":"352.644","EPHEMERIS_TYPE":"0","BSTAR":"-0.00002741200000","REV_AT_EPOCH":"3141","OBJECT_TYPE":"PAYLOAD","INCLINATION":"53.0471","MEAN_MOTION_DDOT":"0.0000000000000","OBJECT_ID":"2021-021N","GP_ID":"185349830","MEAN_MOTION_DOT":"-0.00004481","RCS_SIZE":"LARGE"},{"MEAN_MOTION_DOT":"0.00000106","RCS_SIZE":"LARGE","GP_ID":"185350075","OBJECT_ID":"2021-021P","MEAN_MOTION_DDOT":"0.0000000000000","INCLINATION":"53.0476","OBJECT_TYPE":"PAYLOAD","REV_AT_EPOCH":"3094","EPHEMERIS_TYPE":"0","BSTAR":"0.00002603100000","APOAPSIS":"548.027","RA_OF_ASC_NODE":"10.1313","MEAN_ANOMALY":"214.4444","PERIOD":"95.592","NORAD_CAT_ID":"47873","REF_FRAME":"TEME","ELEMENT_SET_NO":"999","DECAY_DATE":null,"COUNTRY_CODE":"US","TLE_LINE1":"1 47873U 21021P   21266.66471910  .00000106  00000-0  26031-4 0  9999","MEAN_ELEMENT_THEORY":"SGP4","TIME_SYSTEM":"UTC","TLE_LINE2":"2 47873  53.0476  10.1313 0001162 145.6620 214.4444 15.06397060 30945","OBJECT_NAME":"STARLINK-2329","ARG_OF_PERICENTER":"145.6620","SITE":"AFETR","ECCENTRICITY":"0.00011620","LAUNCH_DATE":"2021-03-14","PERIAPSIS":"546.418","CENTER_NAME":"EARTH","MEAN_MOTION":"15.06397060","SEMIMAJOR_AXIS":"6925.358","FILE":"3125337","EPOCH":"2021-09-23T15:57:11.730240","CLASSIFICATION_TYPE":"U"},{"TIME_SYSTEM":"UTC","MEAN_ELEMENT_THEORY":"SGP4","TLE_LINE1":"1 47874U 21021Q   21266.69224025 -.00004949  00000-0 -30701-4 0  9996","SITE":"AFETR","ECCENTRICITY":"0.00048510","TLE_LINE2":"2 47874  53.0477 337.6711 0004851   7.0597 353.0488 15.73260204 31412","ARG_OF_PERICENTER":"7.0597","OBJECT_NAME":"STARLINK-2330","MEAN_MOTION":"15.73260204","SEMIMAJOR_AXIS":"6727.724","LAUNCH_DATE":"2021-03-14","PERIAPSIS":"346.325","CENTER_NAME":"EARTH","FILE":"3125337","EPOCH":"2021-09-23T16:36:49.557600","CLASSIFICATION_TYPE":"U","GP_ID":"185350331","OBJECT_ID":"2021-021Q","MEAN_MOTION_DDOT":"0.0000000000000","MEAN_MOTION_DOT":"-0.00004949","RCS_SIZE":"LARGE","REV_AT_EPOCH":"3141","INCLINATION":"53.0477","OBJECT_TYPE":"PAYLOAD","RA_OF_ASC_NODE":"337.6711","MEAN_ANOMALY":"353.0488","EPHEMERIS_TYPE":"0","BSTAR":"-0.00003070100000","APOAPSIS":"352.852","NORAD_CAT_ID":"47874","REF_FRAME":"TEME","DECAY_DATE":null,"ELEMENT_SET_NO":"999","COUNTRY_CODE":"US","PERIOD":"91.530"},{"OBJECT_TYPE":"PAYLOAD","INCLINATION":"53.0558","REV_AT_EPOCH":"3087","MEAN_MOTION_DOT":"0.00002305","RCS_SIZE":"LARGE","OBJECT_ID":"2021-021R","MEAN_MOTION_DDOT":"0.0000000000000","GP_ID":"185349583","PERIOD":"95.592","DECAY_DATE":null,"ELEMENT_SET_NO":"999","COUNTRY_CODE":"US","NORAD_CAT_ID":"47875","REF_FRAME":"TEME","APOAPSIS":"548.081","EPHEMERIS_TYPE":"0","BSTAR":"0.00017355000000","MEAN_ANOMALY":"239.5895","RA_OF_ASC_NODE":"19.8364","OBJECT_NAME":"STARLINK-2331","ARG_OF_PERICENTER":"120.5219","TLE_LINE2":"2 47875  53.0558  19.8364 0001269 120.5219 239.5895 15.06403745 30872","ECCENTRICITY":"0.00012690","SITE":"AFETR","TLE_LINE1":"1 47875U 21021R   21266.72278111  .00002305  00000-0  17355-3 0  9997","TIME_SYSTEM":"UTC","MEAN_ELEMENT_THEORY":"SGP4","EPOCH":"2021-09-23T17:20:48.287904","CLASSIFICATION_TYPE":"U","FILE":"3125337","CENTER_NAME":"EARTH","PERIAPSIS":"546.323","LAUNCH_DATE":"2021-03-14","SEMIMAJOR_AXIS":"6925.337","MEAN_MOTION":"15.06403745"},{"FILE":"3125337","CLASSIFICATION_TYPE":"U","EPOCH":"2021-09-23T17:04:52.853376","MEAN_MOTION":"15.06403973","SEMIMAJOR_AXIS":"6925.336","LAUNCH_DATE":"2021-03-14","PERIAPSIS":"546.241","CENTER_NAME":"EARTH","SITE":"AFETR","ECCENTRICITY":"0.00013870","TLE_LINE2":"2 47876  53.0576  19.8857 0001387 130.3990 229.7120 15.06403973 30826","OBJECT_NAME":"STARLINK-2332","ARG_OF_PERICENTER":"130.3990","TIME_SYSTEM":"UTC","MEAN_ELEMENT_THEORY":"SGP4","TLE_LINE1":"1 47876U 21021S   21266.71172284  .00001652  00000-0  12977-3 0  9990","REF_FRAME":"TEME","NORAD_CAT_ID":"47876","COUNTRY_CODE":"US","DECAY_DATE":null,"ELEMENT_SET_NO":"999","PERIOD":"95.592","RA_OF_ASC_NODE":"19.8857","MEAN_ANOMALY":"229.7120","BSTAR":"0.00012977000000","EPHEMERIS_TYPE":"0","APOAPSIS":"548.162","REV_AT_EPOCH":"3082","INCLINATION":"53.0576","OBJECT_TYPE":"PAYLOAD","GP_ID":"185349331","OBJECT_ID":"2021-021S","MEAN_MOTION_DDOT":"0.0000000000000","RCS_SIZE":"LARGE","MEAN_MOTION_DOT":"0.00001652"},{"APOAPSIS":"548.089","EPHEMERIS_TYPE":"0","BSTAR":"0.00001455100000","MEAN_ANOMALY":"230.6069","RA_OF_ASC_NODE":"19.8176","PERIOD":"95.592","DECAY_DATE":null,"ELEMENT_SET_NO":"999","COUNTRY_CODE":"US","NORAD_CAT_ID":"47877","REF_FRAME":"TEME","MEAN_MOTION_DOT":"-0.00000065","RCS_SIZE":"LARGE","MEAN_MOTION_DDOT":"0.0000000000000","OBJECT_ID":"2021-021T","GP_ID":"185350575","OBJECT_TYPE":"PAYLOAD","INCLINATION":"53.0552","REV_AT_EPOCH":"3081","CENTER_NAME":"EARTH","LAUNCH_DATE":"2021-03-14","PERIAPSIS":"546.334","SEMIMAJOR_AXIS":"6925.346","MEAN_MOTION":"15.06400726","EPOCH":"2021-09-23T17:26:05.556480","CLASSIFICATION_TYPE":"U","FILE":"3125337","TLE_LINE1":"1 47877U 21021T   21266.72645320 -.00000065  00000-0  14551-4 0  9997","TIME_SYSTEM":"UTC","MEAN_ELEMENT_THEORY":"SGP4","ARG_OF_PERICENTER":"129.5032","OBJECT_NAME":"STARLINK-2333","TLE_LINE2":"2 47877  53.0552  19.8176 0001267 129.5032 230.6069 15.06400726 30814","ECCENTRICITY":"0.00012670","SITE":"AFETR"},{"REV_AT_EPOCH":"3061","INCLINATION":"53.0579","OBJECT_TYPE":"PAYLOAD","GP_ID":"185350831","MEAN_MOTION_DDOT":"0.0000000000000","OBJECT_ID":"2021-021U","RCS_SIZE":"LARGE","MEAN_MOTION_DOT":"0.00000063","REF_FRAME":"TEME","NORAD_CAT_ID":"47878","COUNTRY_CODE":"US","DECAY_DATE":null,"ELEMENT_SET_NO":"999","PERIOD":"95.592","RA_OF_ASC_NODE":"19.7718","MEAN_ANOMALY":"255.1393","BSTAR":"0.00002312300000","EPHEMERIS_TYPE":"0","APOAPSIS":"548.002","SITE":"AFETR","ECCENTRICITY":"0.00011540","TLE_LINE2":"2 47878  53.0579  19.7718 0001154 104.9723 255.1393 15.06403374 30616","OBJECT_NAME":"STARLINK-2335","ARG_OF_PERICENTER":"104.9723","TIME_SYSTEM":"UTC","MEAN_ELEMENT_THEORY":"SGP4","TLE_LINE1":"1 47878U 21021U   21266.73751345  .00000063  00000-0  23123-4 0  9996","FILE":"3125337","CLASSIFICATION_TYPE":"U","EPOCH":"2021-09-23T17:42:01.162080","MEAN_MOTION":"15.06403374","SEMIMAJOR_AXIS":"6925.338","PERIAPSIS":"546.404","LAUNCH_DATE":"2021-03-14","CENTER_NAME":"EARTH"},{"FILE":"3125337","EPOCH":"2021-09-23T17:37:23.090592","CLASSIFICATION_TYPE":"U","MEAN_MOTION":"15.06405242","SEMIMAJOR_AXIS":"6925.332","LAUNCH_DATE":"2021-03-14","PERIAPSIS":"546.303","CENTER_NAME":"EARTH","SITE":"AFETR","ECCENTRICITY":"0.00012910","TLE_LINE2":"2 47879  53.0575  34.7955 0001291  95.7015 264.4121 15.06405242 30782","ARG_OF_PERICENTER":"95.7015","OBJECT_NAME":"STARLINK-2336","TIME_SYSTEM":"UTC","MEAN_ELEMENT_THEORY":"SGP4","TLE_LINE1":"1 47879U 21021V   21266.73429503 -.00001049  00000-0 -51505-4 0  9997","NORAD_CAT_ID":"47879","REF_FRAME":"TEME","DECAY_DATE":null,"ELEMENT_SET_NO":"999","COUNTRY_CODE":"US","PERIOD":"95.592","RA_OF_ASC_NODE":"34.7955","MEAN_ANOMALY":"264.4121","EPHEMERIS_TYPE":"0","BSTAR":"-0.00005150500000","APOAPSIS":"548.092","REV_AT_EPOCH":"3078","INCLINATION":"53.0575","OBJECT_TYPE":"PAYLOAD","GP_ID":"185349084","MEAN_MOTION_DDOT":"0.0000000000000","OBJECT_ID":"2021-021V","MEAN_MOTION_DOT":"-0.00001049","RCS_SIZE":"LARGE"}];
